[{"OBJECT_NAME":"NOAA 18","OBJECT_ID":"2005-018A","EPOCH":"2026-03-17T19:44:25.042848","MEAN_MOTION":14.1371251,"ECCENTRICITY":0.0015055,"INCLINATION":98.8145,"RA_OF_ASC_NODE":157.8154,"ARG_OF_PERICENTER":53.797,"MEAN_ANOMALY":306.4592,"EPHEMERIS_TYPE":0,"CLASSIFICATION_TYPE":"U","NORAD_CAT_ID":28654,"ELEMENT_SET_NO":999,"REV_AT_EPOCH":7340,"BSTAR":4.7581e-5,"MEAN_MOTION_DOT":4.6e-7,"MEAN_MOTION_DDOT":0},{"OBJECT_NAME":"NOAA 19","OBJECT_ID":"2009-005A","EPOCH":"2026-03-17T19:19:24.082176","MEAN_MOTION":14.13458288,"ECCENTRICITY":0.0012715,"INCLINATION":98.9591,"RA_OF_ASC_NODE":147.5893,"ARG_OF_PERICENTER":290.022,"MEAN_ANOMALY":69.9582,"EPHEMERIS_TYPE":0,"CLASSIFICATION_TYPE":"U","NORAD_CAT_ID":33591,"ELEMENT_SET_NO":999,"REV_AT_EPOCH":88157,"BSTAR":4.5623e-5,"MEAN_MOTION_DOT":4.1e-7,"MEAN_MOTION_DDOT":0},{"OBJECT_NAME":"SUOMI NPP","OBJECT_ID":"2011-061A","EPOCH":"2026-03-17T13:36:32.344128","MEAN_MOTION":14.19545804,"ECCENTRICITY":8.401e-5,"INCLINATION":98.7879,"RA_OF_ASC_NODE":18.1077,"ARG_OF_PERICENTER":185.4831,"MEAN_ANOMALY":174.6336,"EPHEMERIS_TYPE":0,"CLASSIFICATION_TYPE":"U","NORAD_CAT_ID":37849,"ELEMENT_SET_NO":999,"REV_AT_EPOCH":74544,"BSTAR":5.5352841e-5,"MEAN_MOTION_DOT":7.2e-7,"MEAN_MOTION_DDOT":0},{"OBJECT_NAME":"NOAA 20 (JPSS-1)","OBJECT_ID":"2017-073A","EPOCH":"2026-03-17T19:02:13.730208","MEAN_MOTION":14.19538215,"ECCENTRICITY":0.0001543,"INCLINATION":98.7701,"RA_OF_ASC_NODE":17.1003,"ARG_OF_PERICENTER":126.8328,"MEAN_ANOMALY":233.299,"EPHEMERIS_TYPE":0,"CLASSIFICATION_TYPE":"U","NORAD_CAT_ID":43013,"ELEMENT_SET_NO":999,"REV_AT_EPOCH":43150,"BSTAR":5.3937e-5,"MEAN_MOTION_DOT":7.0e-7,"MEAN_MOTION_DDOT":0}]
