NOAA 18                 
1 28654U 05018A   26076.82251207  .00000046  00000+0  47581-4 0  9995
2 28654  98.8145 157.8154 0015055  53.7970 306.4592 14.13712510 73408
NOAA 19                 
1 33591U 09005A   26076.80513984  .00000041  00000+0  45623-4 0  9992
2 33591  98.9591 147.5893 0012715 290.0220  69.9582 14.13458288881574
SUOMI NPP               
1 37849U 11061A   26076.56704102  .00000072  00000+0  55353-4 0  9999
2 37849  98.7879  18.1077 0000840 185.4831 174.6336 14.19545804745442
NOAA 20 (JPSS-1)        
1 43013U 17073A   26076.79321447  .00000070  00000+0  53937-4 0  9994
2 43013  98.7701  17.1003 0001543 126.8328 233.2990 14.19538215431500
